{
"type": "FeatureCollection",
"name": "boundary_lines_simplified",
"crs": { "type": "name", "properties": { "name": "urn:ogc:def:crs:OGC:1.3:CRS84" } },
"features": [
{ "type": "Feature", "properties": { "Boundary": "Limaria / [foreign]", "Version": "GIS version 1.5; May 2024", "Status": "NOTIONAL", "id": "limaria-foreign", "display_name": "Limaria / [foreign]" }, "geometry": { "type": "LineString", "coordinates": [ [ 43.440428100476446, 41.106587626417841 ], [ 43.46047855743943, 41.022871806488432 ], [ 43.636178425693814, 40.933523255593876 ], [ 43.7206177169341, 40.762887676624906 ], [ 43.70718184376706, 40.611940817614652 ], [ 43.559490600710667, 40.477892152400948 ], [ 43.62532637491222, 40.420169576064922 ], [ 43.594217163391406, 40.345445454943793 ], [ 43.721392863290028, 40.169383851483659 ], [ 43.665427287039741, 40.110162659279425 ], [ 44.032433308850123, 40.008618470465798 ], [ 44.325645386425521, 40.03466339270134 ], [ 44.522170857998653, 39.933532613239258 ], [ 44.806992829255726, 39.63990171239417 ] ] } },
{ "type": "Feature", "properties": { "Boundary": "Atropia / Limaria", "Version": "GIS version 1.5; May 2024", "Status": "NOTIONAL", "id": "atropia-limaria", "display_name": "Atropia / Limaria" }, "geometry": { "type": "LineString", "coordinates": [ [ 45.002399944401965, 41.290452372978592 ], [ 45.034852742160417, 41.197693176499186 ], [ 45.134433228011105, 41.187874654491587 ], [ 45.201044149467954, 41.126741435269047 ], [ 44.979455606690969, 41.08204132095026 ], [ 44.966949910410079, 41.044834290470298 ], [ 45.015732462982847, 41.023233541694708 ], [ 45.120015502913212, 41.079612529094931 ], [ 45.205178263665879, 41.024887187193649 ], [ 45.177169636669426, 40.993829652516496 ], [ 45.209932495488346, 40.96799143495673 ], [ 45.419118692973278, 41.017342428310393 ], [ 45.416431518699646, 40.961325175216679 ], [ 45.600968057929585, 40.840557353538927 ], [ 45.398809855390589, 40.708937480180865 ], [ 45.387802774978184, 40.609512023960754 ], [ 45.585413452169121, 40.398723856920711 ], [ 45.979239543470129, 40.223592428547633 ], [ 45.87376794423529, 40.009755351128391 ], [ 45.639570353289294, 40.025413310575779 ], [ 45.5794189859974, 39.970171203837815 ], [ 45.742768189400621, 39.940508931342286 ], [ 45.816820516053951, 39.839171448103556 ], [ 45.979239543470278, 39.768478088393131 ], [ 46.184239949913817, 39.593243307232925 ], [ 46.343713419738648, 39.618616435000725 ], [ 46.524270874401431, 39.554641011873322 ], [ 46.491404662794999, 39.466429342540131 ], [ 46.360869995054351, 39.410257060714791 ], [ 46.602612345783172, 39.215488587428318 ], [ 46.395286499372574, 39.19517974894638 ], [ 46.491921428531214, 39.081905009308926 ], [ 46.475074910678792, 38.951060282306273 ], [ 46.514038940344776, 38.882175599524082 ] ] } },
{ "type": "Feature", "properties": { "Boundary": "Ariana / [foreign]", "Version": "GIS version 1.5; May 2024", "Status": "NOTIONAL", "id": "ariana-foreign", "display_name": "Ariana / [foreign]" }, "geometry": { "type": "MultiLineString", "coordinates": [ [ [ 61.416666131687997, 23.346664265207902 ], [ 61.591550151200394, 24.323493179505746 ], [ 61.588226759457456, 25.202093816975893 ], [ 61.660349569077397, 25.769177552401807 ], [ 61.754504029537287, 25.81997548567983 ], [ 61.818376098977751, 26.198453674996852 ], [ 62.094173217919675, 26.314829000058573 ], [ 62.12383549041563, 26.373998515419178 ], [ 62.265118856150401, 26.36097605430173 ], [ 62.2919906006857, 26.501225891261772 ], [ 62.418494507015879, 26.562307435439578 ], [ 62.753564494106193, 26.644162903395383 ], [ 63.141344441492755, 26.625404359423467 ], [ 63.189558553284698, 26.846011048471112 ], [ 63.261647176076288, 26.871745911444545 ], [ 63.231364786855508, 27.065842590263568 ], [ 63.319628133031884, 27.117312317109565 ], [ 63.177104532947759, 27.258440654112864 ], [ 62.892419067086273, 27.213482157375562 ], [ 62.742350708118664, 27.266812236195786 ], [ 62.814697713328833, 27.494963684126997 ], [ 62.735684448378677, 27.994984843276079 ], [ 62.76152266413964, 28.246442362325077 ], [ 62.575642537772886, 28.229027405490399 ], [ 62.362787313183965, 28.418886617323484 ], [ 61.892790160837322, 28.542599997492104 ], [ 61.5665051678792, 28.870977886420164 ], [ 61.468009888545588, 29.041742656598537 ], [ 61.487750285347495, 29.080655009421367 ], [ 61.332824340870573, 29.274906717870472 ], [ 61.337371867118044, 29.374383850034747 ], [ 60.84437870291486, 29.858178609854995 ], [ 61.802253052436356, 30.847058818109815 ], [ 61.826437621798917, 31.014955545961694 ], [ 61.742308390719622, 31.320880025392626 ], [ 61.686911255250251, 31.373176575438595 ], [ 60.821744425364884, 31.49466786842736 ], [ 60.774925578452766, 32.02719350217825 ], [ 60.830322713022746, 32.248885396843441 ], [ 60.562948853007171, 33.058267518531125 ], [ 60.567599731142842, 33.151285096530209 ], [ 60.829082478673548, 33.416281841534001 ], [ 60.832183064996528, 33.484494731646706 ], [ 60.920859822323152, 33.514105326399815 ], [ 60.655553018956596, 33.55989064543671 ], [ 60.511789185422536, 33.638387146449844 ], [ 60.492772257233895, 34.139028422323612 ], [ 60.643667440300128, 34.306640930234749 ], [ 60.890474080314519, 34.318914083418122 ], [ 60.699684692494678, 34.516395569400011 ], [ 60.947524862182696, 34.63799021427711 ], [ 60.959927205675918, 34.723204650973841 ], [ 61.065450479955587, 34.814723613104086 ], [ 61.147305948810533, 35.102096252340395 ], [ 61.096352986800959, 35.193201802421122 ], [ 61.108341919144202, 35.277951152023867 ], [ 61.187096801676162, 35.300378723099698 ], [ 61.290036255369046, 35.548063863157111 ], [ 61.231745239151593, 35.671880595213423 ], [ 61.241046997221147, 35.893882548240938 ], [ 61.129839315132401, 35.970518697279864 ], [ 61.224717244205493, 36.123687643469964 ], [ 61.146685832085581, 36.357265117691213 ], [ 61.165806112162358, 36.636317851687245 ], [ 60.34229048711623, 36.637144673987471 ], [ 60.019209432369436, 37.025803121416843 ], [ 59.653236938433878, 37.149671529417311 ], [ 59.60497115069802, 37.123884990499718 ], [ 59.555981893449662, 37.197782288422161 ], [ 59.461724080202103, 37.20760081042912 ], [ 59.370360149501252, 37.319428609242777 ], [ 59.312275837959533, 37.530345967492238 ], [ 59.211713501077163, 37.516315816921299 ], [ 58.801092569666501, 37.694651184404577 ], [ 58.681720011069572, 37.642716370463972 ], [ 58.529791300128359, 37.700387268157819 ], [ 58.479665161318167, 37.644111634444492 ], [ 58.357812134022844, 37.633311260506254 ], [ 58.206813599068376, 37.678734843438079 ], [ 58.156687459358807, 37.788185527240358 ], [ 57.352395467177132, 37.967528585076224 ], [ 57.344333943456718, 38.081061707131866 ], [ 57.174938598837386, 38.277561340283697 ], [ 57.038409464924797, 38.187282613401692 ], [ 56.729384399170762, 38.271050110174365 ], [ 56.436482380857221, 38.25508209236461 ], [ 56.303363892529582, 38.179427796155785 ], [ 56.315456176761217, 38.089459127636758 ], [ 56.214067016679444, 38.068840231691247 ], [ 55.738437134266455, 38.118604635295895 ], [ 55.447395467027178, 38.083671367039898 ], [ 55.130308878451899, 37.952309876099697 ], [ 54.856630493002839, 37.761132915551343 ], [ 54.787280721328337, 37.651863098003844 ], [ 54.788314250102566, 37.524635722160937 ], [ 54.653955526526381, 37.438904521526339 ], [ 54.5333427326809, 37.440816549444072 ], [ 54.206437622098676, 37.32459625311462 ], [ 53.913748250281543, 37.342753597600499 ] ], [ [ 49.524876198347954, 28.935003225211496 ], [ 49.207303779105921, 29.367255580774128 ], [ 48.749145017899352, 29.609149937396062 ], [ 48.597356684341605, 29.930847283341965 ], [ 48.453145386450444, 30.00142567945181 ], [ 48.381108440502295, 30.14534454441554 ], [ 48.397024781468502, 30.220998841523464 ], [ 48.296359090000067, 30.319752502376069 ], [ 48.200085896946611, 30.323938293417527 ], [ 48.140916382485173, 30.441915588933441 ], [ 48.013585652955605, 30.463878072015543 ], [ 48.012242065818725, 30.98906565335751 ], [ 47.672934610843605, 30.994698385222467 ], [ 47.67892907701534, 31.407851461276124 ], [ 47.834475138217066, 31.805708313087976 ], [ 47.578056681770491, 32.106155090285348 ], [ 47.491343628305835, 32.148633118323744 ], [ 47.509223673134024, 32.213797098957002 ], [ 47.402460165404328, 32.323506165177456 ], [ 47.410831747487208, 32.395284730506042 ], [ 47.265310912968289, 32.484684957344783 ], [ 47.09059289574553, 32.474556376075718 ], [ 46.479312377664066, 32.891791890383402 ], [ 46.273433472077123, 32.959488017457986 ], [ 46.097010132511642, 32.954320374485562 ], [ 46.120419556417353, 33.061678162317058 ], [ 46.030295857367996, 33.105680644646256 ], [ 46.16718672648625, 33.168338318158646 ], [ 46.155301147829761, 33.26021901549516 ], [ 45.97443363480437, 33.490799255281374 ], [ 45.852580608408466, 33.494364930496943 ], [ 45.927924845355285, 33.550873108207156 ], [ 45.885963582153636, 33.630919901931762 ], [ 45.734551636049233, 33.583119202189685 ], [ 45.485781290374277, 33.938653056493642 ], [ 45.380361368882056, 33.973560486327386 ], [ 45.54453739548449, 34.139493510317322 ], [ 45.557559854803522, 34.311963602837913 ], [ 45.46076989781259, 34.340463155350413 ], [ 45.417051635424663, 34.444358623451798 ], [ 45.503454631426081, 34.494174703 ], [ 45.500664103465596, 34.591688131302341 ], [ 45.701530395711238, 34.551277161711546 ], [ 45.627374715370927, 34.720827535063002 ], [ 45.666752156187265, 34.806920472701464 ], [ 45.745403686830755, 34.84097524001541 ], [ 45.75511885605043, 34.909963277383305 ], [ 45.850203492497251, 34.906811015116396 ], [ 45.8570247800697, 35.02127431225972 ], [ 45.913197061894898, 35.087316792935603 ], [ 46.009211873429265, 35.060910136393552 ], [ 46.151063679944883, 35.11160471598501 ], [ 46.169253784034893, 35.216249492020502 ], [ 46.101454305072082, 35.234284566479637 ], [ 46.120161173099753, 35.318517151245388 ], [ 45.963994995172939, 35.494165344454842 ], [ 46.003785848038405, 35.674257711124262 ], [ 46.237880086197009, 35.715547181657094 ], [ 46.327073608360358, 35.803500469471253 ], [ 46.163517700281695, 35.797506002400041 ], [ 46.060423217857263, 35.857243958542156 ], [ 45.74902103709119, 35.810993551511203 ], [ 45.539989868337749, 35.993979798029031 ], [ 45.320210002489688, 35.994083151716239 ], [ 45.348321980475028, 36.087514139965371 ], [ 45.238871298471757, 36.40299875898571 ], [ 45.072266479114859, 36.42341095025543 ], [ 44.991392863090226, 36.533740133200574 ], [ 45.035266154209644, 36.689596253664185 ], [ 44.823392782450931, 36.809330547466814 ], [ 44.883440796055908, 36.886845195649229 ], [ 44.887368204678971, 37.015932923465733 ], [ 44.752699421840845, 37.103317770498705 ], [ 44.801585327201096, 37.292686055916725 ], [ 44.572141968077275, 37.430791320962491 ], [ 44.587438191419409, 37.584011943096762 ], [ 44.540877726026231, 37.632716980404339 ], [ 44.596119832764082, 37.716381124389571 ], [ 44.50646122350669, 37.779348857164038 ], [ 44.436439656464913, 37.767799174392287 ], [ 44.367141560734609, 37.860222473188905 ], [ 44.202087035888106, 37.897171122149807 ], [ 44.458763875652437, 38.338332825199707 ], [ 44.289523559764483, 38.382257792263353 ], [ 44.297016642703888, 38.622320659071086 ], [ 44.244306682407455, 38.658959249669614 ], [ 44.275002481879014, 38.843573303265359 ], [ 44.15196089707765, 38.964625346682382 ], [ 44.186635782915147, 39.145131125401349 ], [ 44.077701863949869, 39.200063171977781 ], [ 44.0148633223844, 39.374083557210163 ], [ 44.387967163154137, 39.414494528599839 ], [ 44.459487345164824, 39.698456523149794 ], [ 44.565734089856441, 39.765894266907104 ], [ 44.806992829255726, 39.63990171239417 ] ] ] } },
{ "type": "Feature", "properties": { "Boundary": "Donovia / [foreign]", "Version": "GIS version 1.5; May 2024", "Status": "NOTIONAL", "id": "donovia-foreign", "display_name": "Donovia / [foreign]" }, "geometry": { "type": "MultiLineString", "coordinates": [ [ [ 26.335783420392286, 59.994632625678157 ], [ 26.543330183635213, 60.106664730392033 ], [ 27.463887754189525, 60.228332505168048 ], [ 27.70007280869018, 60.3714342589127 ], [ 27.790991298596062, 60.531278213181906 ] ], [ [ 27.794118685928691, 60.533189195624963 ], [ 28.797600952422012, 61.096840312330379 ], [ 29.203157592749026, 61.245900980945734 ], [ 30.647720581039955, 62.192768250054357 ], [ 30.925636433474686, 62.302115581069486 ], [ 31.24375655082407, 62.503343608520787 ], [ 31.569524779844784, 62.905928854632712 ], [ 31.262773478113626, 63.100593974232318 ], [ 31.203965697958772, 63.212680155464795 ], [ 30.461065307418028, 63.472870993601205 ], [ 29.980784545970106, 63.741536763910659 ], [ 30.20154626554762, 63.792644756450144 ], [ 30.552325887130085, 64.021726379468987 ], [ 30.586432332186483, 64.084668275620444 ], [ 30.532792195903223, 64.16254465810934 ], [ 30.55847538203346, 64.219698791865937 ], [ 30.032460978391494, 64.396948955529979 ], [ 30.070391479283554, 64.471879781326862 ], [ 29.954842977421428, 64.568979798478793 ], [ 30.180824015016345, 64.642773743613176 ], [ 30.118863973493603, 64.767934061907582 ], [ 29.780279988930531, 64.795580954597625 ], [ 29.633622273749079, 64.907150370992497 ], [ 29.598378947130886, 65.034377746835418 ], [ 29.850198201385766, 65.121504211449874 ], [ 29.808185262240137, 65.135301818923708 ], [ 29.833196654802094, 65.205013327603254 ], [ 29.58008549025315, 65.23539906961156 ], [ 29.720128622537974, 65.329088440279492 ], [ 29.726329793385208, 65.491507467695428 ], [ 29.838571004248585, 65.564888001679975 ], [ 29.70286869353539, 65.629380189643712 ], [ 30.09850345906748, 65.656381124489144 ], [ 30.111732624860895, 65.71201080395565 ], [ 29.900169311464804, 66.108058981536942 ], [ 29.650882201852315, 66.287892964888414 ], [ 29.524481648309486, 66.491213888310142 ], [ 29.051538940170069, 66.90780344747148 ], [ 29.099908080693318, 66.991209208138102 ], [ 29.519830770174195, 67.298167216343913 ], [ 29.916240682062, 67.508128561084376 ], [ 30.009413289691839, 67.685843811842346 ], [ 29.651192261114257, 67.823561503260791 ], [ 29.330850057484319, 68.072693583242284 ], [ 28.690320678956407, 68.183177796718212 ], [ 28.447906534659037, 68.529719950415725 ], [ 28.80147668420183, 68.835489400215906 ], [ 28.410234415286173, 68.89853464825562 ] ] ] } },
{ "type": "Feature", "properties": { "Boundary": "Donovia / Pirtuni", "Version": "GIS version 1.5; May 2024", "Status": "NOTIONAL", "id": "donovia-pirtuni", "display_name": "Donovia / Pirtuni" }, "geometry": { "type": "MultiLineString", "coordinates": [ [ [ 36.151252321782977, 43.434494980586976 ], [ 36.693879669155194, 44.59170373551558 ], [ 36.60715631162617, 44.985722080613812 ], [ 36.504586672485459, 45.195584522973547 ], [ 36.620846636556394, 45.225860753825714 ], [ 36.645388610118403, 45.261350236434737 ], [ 36.575382900026966, 45.309226818358809 ], [ 36.692900505495686, 45.391379086136624 ], [ 36.69132845374844, 46.034078459030866 ], [ 36.950133087103211, 46.043675410991625 ], [ 37.140081853930212, 46.126106772564128 ], [ 37.219519874504897, 46.251485847931576 ], [ 37.269762648345647, 46.515884384527055 ], [ 37.519889556055887, 46.795899038043387 ], [ 37.672010266268842, 46.887969645290809 ], [ 37.965570717966102, 46.847139852192299 ], [ 38.323270880949678, 47.000930775460233 ], [ 38.237356007176516, 47.103962874479862 ] ], [ [ 38.216658637985915, 47.103267004468648 ], [ 38.203486776093996, 47.192314352625488 ], [ 38.300948526653315, 47.276030172554385 ], [ 38.190567667763673, 47.316906230138102 ], [ 38.25795373647594, 47.393232321714379 ], [ 38.293403767769689, 47.56278269506538 ], [ 38.734513793976475, 47.677142639421049 ], [ 38.830942016660913, 47.848243306383551 ], [ 39.759050740899113, 47.832947083041233 ], [ 39.796154419491074, 47.961363017289614 ], [ 39.759877563199154, 48.014951478528076 ], [ 39.842973266403135, 48.036397197672272 ], [ 39.843076619190811, 48.11975128239601 ], [ 39.993248331845223, 48.273230286048772 ], [ 39.815894816292882, 48.308163554304485 ], [ 39.924105265745425, 48.376118062898058 ], [ 39.835325154732232, 48.573470358570319 ], [ 39.631720011369509, 48.586906229938847 ], [ 39.779411255325385, 48.807719625460493 ], [ 39.975264933330209, 48.789684550101867 ], [ 40.05381311028691, 48.869214579888876 ], [ 39.758740682536654, 48.895414530856044 ], [ 39.673991332933838, 48.970138651977152 ], [ 39.681122680667158, 49.020316468529984 ], [ 39.918730916299069, 49.047808330690088 ], [ 39.952113891842771, 49.124547832516612 ], [ 40.141663045313351, 49.245780741288229 ], [ 40.15954309104086, 49.333579000370435 ], [ 40.034899535785144, 49.487058004023766 ], [ 40.130707641744493, 49.579817201402932 ], [ 39.998105916454961, 49.608239238650185 ], [ 39.801528768038224, 49.542196757074464 ], [ 39.622935018136729, 49.613458558465652 ], [ 39.557512655085134, 49.723994446086806 ], [ 39.260889933723547, 49.744509990143968 ], [ 39.155780069694629, 49.873597717960536 ], [ 38.937395466927342, 49.803472799030203 ], [ 38.687281535014904, 49.913801981975723 ], [ 38.664647257465106, 49.965168356034837 ], [ 38.35603560376012, 49.98056793216432 ], [ 38.299914998778263, 50.060511373101463 ], [ 38.17392785638566, 50.060149637895222 ], [ 38.166176391927081, 49.940570374623121 ], [ 38.000398396668857, 49.899797668926965 ], [ 37.915855754439917, 50.003305563401398 ], [ 37.72765018720645, 50.078701477191487 ], [ 37.597115519465603, 50.196937154226134 ], [ 37.59918257611514, 50.290884908212035 ], [ 37.480016723992776, 50.34002919509129 ], [ 37.415214477666268, 50.431858216483761 ], [ 36.848634073903497, 50.323699442975112 ], [ 36.594386026893744, 50.204430237165866 ], [ 36.410004516395531, 50.304579162898392 ], [ 36.26903120902324, 50.281376445466549 ], [ 36.105837036150206, 50.421109518489345 ], [ 35.837429646461146, 50.423228251082776 ], [ 35.696869751138308, 50.34514516211982 ], [ 35.611396932023069, 50.351708069072458 ], [ 35.54080692509973, 50.450048320573558 ], [ 35.425258423237779, 50.500484518645976 ], [ 35.377716105014372, 50.621820781104248 ], [ 35.468873331938767, 50.66853627522886 ], [ 35.341749307984287, 50.915859680079905 ], [ 35.284801879803183, 50.944333395070146 ], [ 35.278083944118862, 50.992650859649359 ], [ 35.355081827464346, 51.025594585621775 ], [ 35.143621866855938, 51.05848663385126 ], [ 35.078716267741754, 51.207624816832094 ], [ 34.674916625701883, 51.167678935234733 ], [ 34.60835738108841, 51.234005635851304 ], [ 34.185954223808551, 51.248914286464924 ], [ 34.308737427090705, 51.334619650476384 ], [ 34.185850871020932, 51.394150899244607 ], [ 34.22367801912543, 51.514763692190854 ], [ 34.08911258907483, 51.666614889665652 ], [ 34.376330200478549, 51.708601990389525 ], [ 34.412710408658768, 51.777693380545259 ], [ 34.096243936808321, 51.951817119464465 ], [ 34.065341430862532, 52.158626201038317 ], [ 33.804065388906565, 52.354609070252309 ], [ 33.510078165874972, 52.287533061701822 ], [ 33.480519246166466, 52.357761333418921 ], [ 33.182862996030678, 52.367295635485505 ], [ 32.908977905006395, 52.241101787517778 ], [ 32.394280639240151, 52.326807150629463 ], [ 32.353559611287153, 52.321587829914279 ], [ 32.366995484454094, 52.24719960647667 ], [ 32.233308553546976, 52.080853170437763 ], [ 31.910382528430944, 52.029073385228742 ], [ 31.858706095110335, 52.099870096827829 ], [ 31.764344929974698, 52.100567729716886 ], [ 31.682386108332366, 52.201931051377017 ], [ 31.699439330860514, 52.251462910984685 ], [ 31.567354370407998, 52.311381734279735 ], [ 31.608075398361166, 52.372463278457531 ], [ 31.550559529399095, 52.511886292218833 ], [ 31.628642618362051, 52.548059794823757 ], [ 31.480641316943434, 52.682470195243752 ], [ 31.570248250256668, 52.725258281644528 ], [ 31.560843139399424, 52.78706329443537 ], [ 31.247063842722412, 53.014387919167177 ], [ 31.363697550202176, 53.08877614440371 ], [ 31.416355835453544, 53.199983826492712 ], [ 31.738558390157493, 53.192542419496874 ], [ 31.796280966493612, 53.112392272985346 ], [ 31.930743041958181, 53.088336893932876 ], [ 32.201114136408364, 53.097561138535525 ], [ 32.423632853373874, 53.204402161530652 ], [ 32.479133342529792, 53.274914653188659 ], [ 32.454845419480534, 53.300442811486505 ], [ 32.717465046774748, 53.334936829271214 ], [ 32.71953210432315, 53.43947825251928 ], [ 32.429420613969967, 53.561589661333699 ], [ 32.399086547905995, 53.635383606468338 ], [ 32.490192097987119, 53.677138163196048 ], [ 32.44213301582613, 53.71393178342521 ], [ 32.083601928886253, 53.809636536597054 ], [ 31.744656209116954, 53.794857076293454 ], [ 31.837932170433533, 53.962133687419907 ], [ 31.822635945292973, 54.053445943975362 ], [ 31.32468184369236, 54.229249165916372 ], [ 31.209029988143527, 54.448047181632035 ], [ 31.064646036985323, 54.492282206159075 ], [ 31.167947224984516, 54.621576640449632 ], [ 30.770607137109607, 54.786011048570685 ], [ 30.81484216343523, 54.928017884717576 ], [ 30.917368205078731, 54.953959452366746 ], [ 30.913234089981415, 55.02460113523432 ], [ 31.005631551255306, 55.022999167477678 ], [ 30.959794555374458, 55.162577209969982 ], [ 30.794274943434175, 55.285515441984387 ], [ 30.918298380166107, 55.387783102108358 ], [ 30.881298055261027, 55.451448465973613 ], [ 30.912820678831451, 55.571596171825888 ], [ 30.847656697298873, 55.61102528948561 ], [ 30.742185098963091, 55.594385478107256 ], [ 30.468816772775995, 55.79352061048786 ], [ 30.200254353455819, 55.857986959131154 ], [ 30.10625492442523, 55.821916809313223 ], [ 29.907817423135668, 55.843207500625397 ], [ 29.805704794440999, 55.771454774618405 ], [ 29.684161825507886, 55.77060211209789 ], [ 29.480866740507736, 55.681098532471026 ], [ 29.350745483017761, 55.766054585850441 ], [ 29.38412845946084, 55.879949443112309 ], [ 29.444434855484303, 55.906924540434886 ], [ 29.377410522877483, 55.954027608187801 ], [ 29.030765015493159, 56.024178366438321 ], [ 28.808969767141207, 55.934571432225937 ], [ 28.706392050453019, 55.959841207206352 ], [ 28.611462442737775, 56.088463847029061 ], [ 28.389770548072477, 56.088567200715715 ], [ 28.310912312753146, 56.042678527991598 ], [ 28.148906697386394, 56.142414043473707 ] ] ] } },
{ "type": "Feature", "properties": { "Boundary": "Ariana / Atropia", "Version": "GIS version 1.5; May 2024", "Status": "NOTIONAL", "id": "ariana-atropia", "display_name": "Ariana / Atropia" }, "geometry": { "type": "LineString", "coordinates": [ [ 46.514038940344776, 38.882175599524082 ], [ 46.866162149963358, 39.165362448618382 ], [ 47.020467976815738, 39.189960429130366 ], [ 47.102220092882973, 39.308402812639677 ], [ 47.823106323498116, 39.680318095004104 ], [ 47.957258341499362, 39.707344869170591 ], [ 48.338940470826273, 39.37894114271969 ], [ 48.106189819804392, 39.26918040055476 ], [ 48.142156615935178, 39.181201274319619 ], [ 48.271296021494265, 39.108311665850962 ], [ 48.301423380185, 39.017464498188119 ], [ 48.058544148793509, 38.948373108032463 ], [ 47.990744669830761, 38.891218974276164 ], [ 48.012965535331276, 38.821559143340004 ], [ 48.22297855601569, 38.721461894451025 ], [ 48.228042847099843, 38.662189026302656 ], [ 48.310311727104533, 38.600151470414083 ], [ 48.415266561502627, 38.618109030507405 ], [ 48.60786462445278, 38.395977885371032 ], [ 48.874278368252142, 38.434062791764411 ] ] } },
{ "type": "Feature", "properties": { "Boundary": "Ariana / Limaria", "Version": "GIS version 1.5; May 2024", "Status": "NOTIONAL", "id": "ariana-limaria", "display_name": "Ariana / Limaria" }, "geometry": { "type": "LineString", "coordinates": [ [ 44.806992829255726, 39.63990171239417 ], [ 44.872278686911876, 39.625075989165538 ], [ 44.957028036514842, 39.434493306920899 ], [ 45.087976115405461, 39.350725810148226 ], [ 45.152726684888606, 39.21352488356677 ], [ 45.311114949994959, 39.200528259971179 ], [ 45.459839721825631, 38.993124898295122 ], [ 46.126052286483862, 38.862667744920714 ], [ 46.378233276844242, 38.924705303506961 ], [ 46.514038940344776, 38.882175599524082 ] ] } },
{ "type": "Feature", "properties": { "Boundary": "Atropia / Gorgas", "Version": "GIS version 1.5; May 2024", "Status": "NOTIONAL", "id": "atropia-gorgas", "display_name": "Atropia / Gorgas" }, "geometry": { "type": "LineString", "coordinates": [ [ 47.250841511926289, 41.316032206321303 ], [ 47.015220508439185, 41.230680715772145 ], [ 46.749992508147884, 41.29217263455147 ], [ 46.683434285863704, 41.269471740928033 ], [ 46.62111250823564, 41.114597473294488 ], [ 46.474919881047754, 41.0441108200584 ], [ 46.210594930511625, 41.200173645197452 ], [ 46.01742842588127, 41.163793437017716 ], [ 45.820747924677022, 41.208803610598309 ], [ 45.685872436263885, 41.296240133575139 ], [ 45.744060099693826, 41.335359191972863 ], [ 45.464800659223101, 41.430185445102268 ], [ 45.249619996465647, 41.444499817412471 ], [ 45.002399944401965, 41.290452372978592 ] ] } },
{ "type": "Feature", "properties": { "Boundary": "Atropia / Donovia", "Version": "GIS version 1.5; May 2024", "Status": "NOTIONAL", "id": "atropia-donovia", "display_name": "Atropia / Donovia" }, "geometry": { "type": "LineString", "coordinates": [ [ 48.674991002295023, 41.780321324353686 ], [ 48.460615585370896, 41.468435251188893 ], [ 48.014597080720421, 41.390250987229891 ], [ 47.871113728815708, 41.208183492074745 ], [ 47.547309205455583, 41.205651347431669 ], [ 47.250841511926289, 41.316032206321303 ] ] } },
{ "type": "Feature", "properties": { "Boundary": "Gorgas / [foreign]", "Version": "GIS version 1.5; May 2024", "Status": "NOTIONAL", "id": "gorgas-foreign", "display_name": "Gorgas / [foreign]" }, "geometry": { "type": "MultiLineString", "coordinates": [ [ [ 43.440428100476446, 41.106587626417841 ], [ 43.383273966720189, 41.187202860923293 ], [ 43.23062178536712, 41.172630107093717 ], [ 43.103136027106089, 41.248801168139551 ], [ 43.184009644029807, 41.298978984692233 ], [ 42.868008260173056, 41.500207011244399 ], [ 42.766515747303941, 41.504341125442899 ], [ 42.800932250722781, 41.579220276194761 ], [ 42.585234822229317, 41.57875518820137 ], [ 42.463071737470734, 41.431839092400089 ], [ 41.947961059655192, 41.505581360691153 ], [ 41.812982218454565, 41.421813863019352 ], [ 41.702601358665817, 41.489044902100858 ], [ 41.520762566139524, 41.51422760741837 ] ], [ [ 38.973372668914109, 42.343123072933864 ], [ 40.69249659443939, 41.950002494774317 ], [ 41.275835590488001, 41.594723537027321 ], [ 41.548626992816658, 41.521777180016166 ] ] ] } },
{ "type": "Feature", "properties": { "Boundary": "Gorgas / Limaria", "Version": "GIS version 1.5; May 2024", "Status": "NOTIONAL", "id": "gorgas-limaria", "display_name": "Gorgas / Limaria" }, "geometry": { "type": "LineString", "coordinates": [ [ 45.002399944401965, 41.290452372978592 ], [ 44.820705607277887, 41.273347474506245 ], [ 44.847784057388466, 41.208906962486637 ], [ 44.612862996030458, 41.223117981109944 ], [ 44.55152307123285, 41.177022604609526 ], [ 44.180331258380903, 41.229939270481054 ], [ 44.12472741733658, 41.178056132484635 ], [ 43.754155721209649, 41.108241271917407 ], [ 43.440428100476446, 41.106587626417841 ] ] } },
{ "type": "Feature", "properties": { "Boundary": "Gorgas / Donovia", "Version": "GIS version 1.5; May 2024", "Status": "NOTIONAL", "id": "gorgas-donovia", "display_name": "Gorgas / Donovia" }, "geometry": { "type": "MultiLineString", "coordinates": [ [ [ 40.002770119292492, 43.377833935081462 ], [ 39.952212935102068, 43.142178734362801 ], [ 38.973372668914109, 42.343123072933864 ] ], [ [ 39.985976355324588, 43.388989609782911 ], [ 40.072830038475722, 43.551063742697387 ], [ 40.233130331499801, 43.57576507599746 ], [ 40.519624470692861, 43.505175069074134 ], [ 40.651916138519127, 43.538971456667291 ], [ 41.011790813495374, 43.375415548588798 ], [ 41.380657185480864, 43.334772034102052 ], [ 41.577544393159272, 43.215296123617364 ], [ 42.043355754464613, 43.180569560037434 ], [ 42.35455122875635, 43.236018372350308 ], [ 42.615207153087688, 43.136980490656939 ], [ 42.829767700019531, 43.168761494847168 ], [ 43.000093221524935, 43.09866241523833 ], [ 42.998852986276468, 43.04220591347233 ], [ 43.155587605883412, 42.942392884523734 ], [ 43.800612833815471, 42.746461690354842 ], [ 43.722581420795962, 42.62486704547775 ], [ 43.939725789213789, 42.552209981905094 ], [ 44.197384480909058, 42.629104512463044 ], [ 44.272005249243009, 42.702381694559278 ], [ 44.508114868106745, 42.75028574619035 ], [ 44.679422242442676, 42.723672384073403 ], [ 44.773473348316607, 42.609648337400976 ], [ 44.859359579480973, 42.759509989893949 ], [ 45.029788451975392, 42.688764954239034 ], [ 45.155362182318825, 42.693260804542263 ], [ 45.322690470289018, 42.530118307613591 ], [ 45.698688191806731, 42.507587381952078 ], [ 45.73641198712366, 42.447539368347392 ], [ 45.631405476781431, 42.201171977005238 ], [ 45.881364379962122, 42.102030742524725 ], [ 45.934126017101974, 42.028495178909125 ], [ 46.224340861142004, 41.993484395388791 ], [ 46.525511108750763, 41.882302552620914 ], [ 46.56757572474001, 41.786675314714117 ], [ 46.740795125194921, 41.85124501614488 ], [ 46.769113811453423, 41.775719910245705 ], [ 46.90223229978097, 41.712752177471209 ], [ 47.027030883768361, 41.556947733850883 ], [ 47.141390828124379, 41.55240020850291 ], [ 47.239059285158049, 41.415716044060467 ], [ 47.25084151192646, 41.316032206321303 ] ] ] } },
{ "type": "Feature", "properties": { "Boundary": "Pirtuni / [foreign]", "Version": "GIS version 1.5; May 2024", "Status": "NOTIONAL", "id": "pirtuni-foreign", "display_name": "Pirtuni / [foreign]" }, "geometry": { "type": "MultiLineString", "coordinates": [ [ [ 29.661634063093743, 45.213642082843364 ], [ 31.174361068939675, 44.737056721560407 ], [ 31.409710690226063, 44.048850335522502 ], [ 31.345193686520702, 43.447070430565532 ] ], [ [ 29.659074653372613, 45.215880695137798 ], [ 29.650262085127167, 45.346122132630626 ], [ 29.430637248010839, 45.430406392441341 ], [ 29.228168986209766, 45.423740133600404 ], [ 28.929892618449742, 45.279097799124088 ], [ 28.789746134276811, 45.321420797531687 ], [ 28.759670451530269, 45.274188538570115 ], [ 28.80266524350634, 45.244164530868375 ], [ 28.71006107575829, 45.226956279608544 ], [ 28.330239298404877, 45.322919413400598 ], [ 28.286417684128878, 45.421724751995555 ], [ 28.199497925089361, 45.461773987279742 ], [ 28.270501343162607, 45.521511943421331 ], [ 28.502011759835057, 45.508747863822919 ], [ 28.536893351247329, 45.579802959638641 ], [ 28.474003132838334, 45.657937725445549 ], [ 28.738276407430419, 45.837565003222096 ], [ 28.740240112191714, 45.953216857871894 ], [ 28.956867716671923, 46.001379293719367 ], [ 28.938780965369176, 46.089280905589078 ], [ 29.0153654384643, 46.182608541051366 ], [ 28.933509968710155, 46.258986308571309 ], [ 28.945808960315389, 46.454788310632239 ], [ 29.184244018246773, 46.538039043466995 ], [ 29.20067712405006, 46.357119853598306 ], [ 29.283256062417593, 46.397427470401681 ], [ 29.306717163166638, 46.471996561892126 ], [ 29.374723347704617, 46.416186015272729 ], [ 29.457612345333814, 46.484708965546645 ], [ 29.480866740507736, 46.425151877457154 ], [ 29.615638875233913, 46.361822409476531 ], [ 29.714134155466979, 46.471169739591915 ], [ 29.828132365516467, 46.339394837502198 ], [ 30.081140177277518, 46.374198914548515 ], [ 30.131576375349539, 46.422826437489789 ], [ 29.901926309751389, 46.530830180468683 ], [ 29.949675334449296, 46.578863424207611 ], [ 29.928177938461147, 46.809753723255994 ], [ 29.558691447052695, 46.945740255708529 ], [ 29.602099650178729, 47.061004538528607 ], [ 29.570163615458512, 47.091441956481447 ], [ 29.520140829435945, 47.059919332011589 ], [ 29.47786950697207, 47.111544088488927 ], [ 29.54484216273579, 47.135573629119676 ], [ 29.556572714459378, 47.324037577871934 ], [ 29.480866740507736, 47.338274434917594 ], [ 29.409553263172825, 47.279750876501453 ], [ 29.232613158770221, 47.446329855638055 ], [ 29.155615275424907, 47.449998880943667 ], [ 29.117426391215133, 47.533327128144663 ], [ 29.238607624942063, 47.756000875639927 ], [ 29.177836140925422, 47.789719747068602 ], [ 29.236023803456021, 47.870722555202065 ], [ 29.123989298167601, 47.975987447063119 ], [ 28.950356485663292, 47.934801331116262 ], [ 28.832534220677928, 48.024821676479291 ], [ 28.79925459792139, 48.111793111462873 ], [ 28.573635295532767, 48.154968771491951 ], [ 28.519323363882222, 48.149129334051338 ], [ 28.479584187860212, 48.064922588606748 ], [ 28.411578003322461, 48.170704244405783 ], [ 28.317423542862173, 48.135357564999651 ], [ 28.35773116146396, 48.238607076155745 ], [ 28.093251180397942, 48.237444357071524 ], [ 28.076404663444578, 48.314933166831906 ], [ 27.582998087192095, 48.486033834693785 ], [ 27.208550659285777, 48.360615133082035 ], [ 27.037398315480004, 48.399682516435462 ], [ 27.033057494807679, 48.360201721932299 ], [ 26.94324385591932, 48.351261699068232 ], [ 26.831932821042813, 48.391362610295971 ], [ 26.777517538403742, 48.366170350581569 ], [ 26.774365275237301, 48.287182923153352 ], [ 26.67979740452671, 48.330177714230217 ], [ 26.587399943252933, 48.249355774149819 ], [ 26.303489623747339, 48.212045389982677 ], [ 26.27072676582776, 48.093603007373076 ], [ 26.173058308794111, 47.99314402327775 ], [ 25.261744426464077, 47.89857615256733 ], [ 25.079946737452076, 47.742926738577921 ], [ 24.896598754828744, 47.710060526971574 ], [ 24.542098429299358, 47.943818868346398 ], [ 24.231006306895665, 47.897025858955942 ], [ 24.008797648292955, 47.961207988558101 ], [ 23.85521529095314, 47.93423289033575 ], [ 23.780077758681898, 47.987511291413 ], [ 23.460820759770286, 47.97133656892737 ], [ 23.139083292160365, 48.098124695198464 ], [ 23.063118936689705, 48.007458395588685 ], [ 22.924109334078651, 48.004822896359542 ], [ 22.877600546428198, 47.946738587515597 ], [ 22.801429484483208, 48.090967509043423 ], [ 22.605472452791503, 48.097039490480199 ], [ 22.481449015160024, 48.242586162521377 ], [ 22.357115519165916, 48.243102926458619 ], [ 22.256759887858607, 48.357282003661567 ], [ 22.271849406524836, 48.403454895427046 ], [ 22.132839803014633, 48.404798483463253 ], [ 22.138730916398742, 48.569594624991794 ], [ 22.310296671354422, 48.681680807123485 ], [ 22.368897745934362, 48.856450501190011 ], [ 22.448996216502223, 48.971430562270598 ], [ 22.520516398513109, 48.99292795825869 ], [ 22.539636677690623, 49.072199606526738 ], [ 22.866955200322252, 49.009981181686044 ], [ 22.841323690136278, 49.094885559121224 ], [ 22.681746867523827, 49.161238098159515 ], [ 22.737764119718577, 49.275391337840176 ], [ 22.640922484984628, 49.528760885706106 ], [ 22.665830525658407, 49.567363180166581 ], [ 23.101462850530197, 49.957106832314309 ], [ 23.682202596073125, 50.368244528562002 ], [ 23.981305786133248, 50.404779765473904 ], [ 24.010657999367254, 50.492784729231914 ], [ 24.107706339675929, 50.540843811392733 ], [ 24.081041300715583, 50.712978007129436 ], [ 23.957637979809192, 50.808010967632356 ], [ 24.143156371869225, 50.856431783199923 ], [ 23.979342081372124, 50.93751210659866 ], [ 23.863586873035956, 51.148274434317557 ], [ 23.635177042686507, 51.304698996461866 ], [ 23.697602173101984, 51.404434509245334 ], [ 23.543399699000076, 51.592743429000166 ], [ 23.552288045000125, 51.736636455000053 ], [ 23.617503703000239, 51.786504212000125 ], [ 23.594559367000215, 51.843296611000028 ], [ 23.67641483500006, 51.994088440000098 ], [ 23.637450806000174, 52.084470521000185 ], [ 23.512497192000183, 52.124442241000054 ], [ 23.487692505000155, 52.181622213000139 ], [ 23.189726196000095, 52.240533346000063 ], [ 23.165644979000092, 52.289393413000028 ], [ 23.392297810000116, 52.509638367000093 ], [ 23.868961222000223, 52.670042013000057 ], [ 23.922498006000183, 52.742595724000068 ], [ 23.911335897000242, 53.005060324 ], [ 23.859349406000035, 53.067976380000118 ], [ 23.893662557000084, 53.151950582000097 ], [ 23.590942016000099, 53.611250712000128 ], [ 23.485625448000121, 53.939292704000025 ], [ 23.627115519000029, 53.898209941000175 ], [ 24.169614705000072, 53.958929749000049 ], [ 24.257051229000183, 53.894024150000121 ], [ 24.377870728000119, 53.886841125999979 ], [ 24.666845336000222, 53.993863017000137 ], [ 24.806371704000128, 53.975311178000027 ], [ 24.782497192000051, 54.092875062000132 ], [ 24.821564575000195, 54.13452626600008 ], [ 25.07198856600013, 54.132200827000133 ], [ 25.206243937000124, 54.256792705 ], [ 25.369748169000104, 54.247904358000085 ], [ 25.459355103000064, 54.298908997000069 ], [ 25.5539746500001, 54.231264548000183 ], [ 25.501678100000106, 54.221756084 ], [ 25.516044149000095, 54.144758200000069 ], [ 25.763057495000169, 54.15643707300012 ], [ 25.789205770000194, 54.236225485000034 ], [ 25.695981486000051, 54.32097483400014 ], [ 25.528653198000029, 54.32097483400014 ], [ 25.630869181000094, 54.50835357700015 ], [ 25.740423217000227, 54.568504943999983 ], [ 25.721199585000193, 54.766735739000126 ], [ 25.782694539000147, 54.869675192000045 ], [ 25.870234416000187, 54.938818258000197 ], [ 26.138641805000248, 54.968945618000191 ], [ 26.264422241000204, 55.140097962000084 ], [ 26.600939168000139, 55.120822652000072 ], [ 26.656956421000245, 55.215338847000055 ], [ 26.800720256000204, 55.273319804000096 ], [ 26.450043986000139, 55.327063294000084 ], [ 26.595564819000174, 55.568030497999985 ], [ 26.615615275000209, 55.687971497000092 ], [ 26.822837769000159, 55.706109925000192 ], [ 26.981071004000228, 55.826877747000196 ], [ 27.592713256000195, 55.794244080000055 ], [ 27.645009806000019, 55.92284088100007 ], [ 27.911453491000145, 56.100246073999983 ], [ 28.148906697000257, 56.142414043000144 ] ] ] } },
{ "type": "Feature", "properties": { "Boundary": "Donovia / [foreign]", "Version": "GIS version 1.5; May 2024", "Status": "NOTIONAL", "id": "donovia-foreign", "display_name": "Donovia / [foreign]" }, "geometry": { "type": "MultiLineString", "coordinates": [ [ [ 130.696986631195841, 42.29287392893616 ], [ 131.64967693946312, 41.621617339242334 ], [ 132.332953510870084, 40.777240470022207 ], [ 132.815555430957716, 40.26898648243855 ] ], [ [ 130.703603160458101, 42.295241320231071 ], [ 130.530771118692428, 42.530480041920441 ], [ 130.584514607763253, 42.568901469227683 ], [ 130.571905558694766, 42.62181813599841 ], [ 130.379669230950526, 42.696671448328914 ], [ 130.586478313423868, 42.817258402853099 ], [ 130.794320922872203, 42.869064026483329 ], [ 130.992448364899928, 42.848729350478948 ], [ 131.103035929364864, 42.910431010483023 ], [ 131.07833459516587, 43.031818950684283 ], [ 131.183961223131973, 43.120805766373223 ], [ 131.169078410040925, 43.201705221718441 ], [ 131.280906209753994, 43.380221456355343 ], [ 131.274291625957972, 43.451199036006699 ], [ 131.160706827957824, 43.53277028402124 ], [ 131.206698853469447, 43.974784648692776 ], [ 131.264473103950422, 44.054211325692165 ], [ 131.065828898884774, 44.682028301465152 ], [ 130.933433879170479, 44.841708475965504 ], [ 131.051566203417678, 44.909042866934954 ], [ 131.433765096682123, 44.961287740137038 ], [ 131.609051554685834, 45.089703674384907 ], [ 131.627758424511512, 45.19848256551802 ], [ 131.723153118421692, 45.215329082471328 ], [ 131.85306766853796, 45.337595520017317 ], [ 131.991944336062261, 45.22935389826381 ], [ 132.041301516751787, 45.112888081619985 ], [ 132.012453832178608, 45.04547869708415 ], [ 132.114303820165333, 44.991315697661776 ], [ 132.120191102437389, 44.867682763648361 ], [ 132.037474782734989, 44.816757769655396 ], [ 132.065439375327173, 44.729920352542024 ], [ 132.284446285567583, 44.634252011121816 ], [ 132.216448172445439, 44.638078745138102 ], [ 132.236170568417265, 44.573318636545935 ], [ 132.353621855864276, 44.527986561430907 ], [ 132.631207227232039, 44.710492319964828 ], [ 132.64857471065443, 44.854730741930268 ], [ 132.835050694533834, 45.060111738765499 ], [ 132.953362264456928, 45.024384664120987 ], [ 133.098779745289221, 45.107790426587144 ], [ 133.101880330712902, 45.287210999687886 ], [ 133.1798083909448, 45.493813375686784 ], [ 133.477257935505463, 45.627707011269706 ], [ 133.487799927024867, 45.686669820156112 ], [ 133.443048136762513, 45.709665832912151 ], [ 133.511364381461249, 45.77855051749259 ], [ 133.477257935505463, 45.820098369544212 ], [ 133.514361613198389, 45.879267884005912 ], [ 133.658125448530768, 45.934509989844287 ], [ 133.720033814109229, 46.063752747291403 ], [ 133.687374308977382, 46.141835836255098 ], [ 133.902451619846488, 46.258986308571309 ], [ 133.915990844901557, 46.312988180060358 ], [ 133.863384237392779, 46.33929148471401 ], [ 133.933870891528613, 46.390761211560744 ], [ 133.845814250027956, 46.470652975654673 ], [ 134.01479618349731, 46.665033874414064 ], [ 134.06915979019243, 46.981241963845548 ], [ 134.124246867298893, 47.07051300127381 ], [ 134.227289672880033, 47.117745260235381 ], [ 134.15411584537037, 47.257891744408596 ], [ 134.183571411391654, 47.327499899401005 ], [ 134.312865844783232, 47.420129904671569 ], [ 134.556881959534849, 47.471186219468734 ], [ 134.772579387129213, 47.71073232143948 ], [ 134.559362427334463, 48.009525452238108 ], [ 134.68297245291626, 48.13551259463037 ], [ 134.718732544371733, 48.263411764041791 ], [ 134.386349732454164, 48.381337383613186 ], [ 133.737913859836908, 48.251086934914042 ], [ 133.524386840780153, 48.095437520924804 ], [ 133.09195845591853, 48.106780497222417 ], [ 132.80587772697595, 47.936196594197668 ], [ 132.674619588823816, 47.950614319295198 ], [ 132.668005005027226, 47.881316224464229 ], [ 132.524654581743334, 47.707528381429483 ], [ 132.332418253999094, 47.736518860356966 ], [ 131.603263794088662, 47.661536357716784 ], [ 131.440896444415444, 47.741169739391921 ], [ 131.103862753463318, 47.676548360218703 ], [ 130.965679973151964, 47.703936870489997 ], [ 130.906975545785258, 47.884261780257077 ], [ 130.674741658700555, 48.063940734876894 ], [ 130.674741658700668, 48.135926006679824 ], [ 130.823983195367873, 48.294159241255727 ], [ 130.743264608075492, 48.411593934412792 ], [ 130.758974243466582, 48.485723775431609 ], [ 130.626372518177277, 48.482261455701519 ], [ 130.62017134643088, 48.560499573396726 ], [ 130.529737589918227, 48.616258443172853 ], [ 130.674328248450138, 48.870816549444442 ], [ 130.201798951460546, 48.88259877531317 ], [ 129.926466920512325, 49.025690816178496 ], [ 129.920679159016117, 49.081863098902943 ], [ 129.741775350751936, 49.195706278422051 ], [ 129.711182902269229, 49.274151103490453 ], [ 129.5518127852323, 49.290480856506406 ], [ 129.48060266248342, 49.421273906665817 ], [ 129.378696736665574, 49.425046286557176 ], [ 129.340972941348582, 49.341175436097615 ], [ 129.217879679703401, 49.390784810970217 ], [ 129.115353638060242, 49.348771870924907 ], [ 128.998151489799397, 49.441272684986131 ], [ 128.760129842118431, 49.470883281538079 ], [ 128.801677694170394, 49.565141092986892 ], [ 128.671866495942595, 49.611443176861314 ], [ 128.198303670178461, 49.538992818863562 ], [ 127.967930135067604, 49.60322662440899 ], [ 127.854655395430086, 49.584881491587623 ], [ 127.703605185430888, 49.660639141482989 ], [ 127.644280640439433, 49.767144267693823 ], [ 127.538654012472762, 49.78993357397519 ], [ 127.486667521688901, 50.025629782588226 ], [ 127.590640503256736, 50.208719380994808 ], [ 127.330656372494104, 50.328195292379178 ], [ 127.358509969859256, 50.415115051418695 ], [ 127.288953491710572, 50.466016337484291 ], [ 127.367088258416402, 50.577792460353749 ], [ 127.288953491710572, 50.67515085902528 ], [ 127.287351522155063, 50.751011862607299 ], [ 126.931765991907014, 51.063783468032625 ], [ 126.90515262889096, 51.208115743247163 ], [ 126.972176961497894, 51.324000143692047 ], [ 126.899364868294242, 51.316507059852938 ], [ 126.869909302272845, 51.251730651948151 ], [ 126.808982789524862, 51.289066875436333 ], [ 126.909441772720015, 51.391101990664424 ], [ 126.800301148179415, 51.41895558713037 ], [ 126.807432495913076, 51.534219869051753 ], [ 126.676897827273365, 51.576594543403587 ], [ 126.725577027058421, 51.708731182498411 ], [ 126.647907349245429, 51.741261496421373 ], [ 126.439289592541058, 51.997860820021117 ], [ 126.555974975964659, 52.130643412463655 ], [ 126.316713094833858, 52.199760641040939 ], [ 126.43928959254049, 52.27528574693963 ], [ 126.315731242003494, 52.316213481367299 ], [ 126.350716187102421, 52.376907451018155 ], [ 126.275992065981086, 52.463284608597917 ], [ 126.200337768873283, 52.467082825112414 ], [ 126.212326701216512, 52.533047791422632 ], [ 125.990841512126394, 52.586429545287388 ], [ 125.982779989305186, 52.653040467643621 ], [ 126.068614542726777, 52.679886372857482 ], [ 126.03512821529489, 52.727118633617977 ], [ 126.088044881166297, 52.775410257976944 ], [ 125.976940551864914, 52.764997458565745 ], [ 125.837362508473348, 52.906720072973371 ], [ 125.646469767865597, 52.884886780200873 ], [ 125.733544556536117, 52.981650900568468 ], [ 125.621355022516468, 53.062136942965708 ], [ 125.521309448672469, 53.04242238458562 ], [ 125.07368819235603, 53.212205302832501 ], [ 124.897678263940747, 53.185514425450265 ], [ 124.870134724937884, 53.107999776368729 ], [ 124.651595093439028, 53.208768820624528 ], [ 124.383704467687153, 53.24613087983613 ], [ 124.253066447158858, 53.375502828492813 ], [ 124.121808309006497, 53.352687684689101 ], [ 123.970551392532911, 53.455187887011391 ], [ 123.614294067816786, 53.563346660519699 ], [ 123.541895385763269, 53.514099019953903 ], [ 123.514403525402258, 53.562416484532946 ], [ 123.481537312896648, 53.518078105420045 ], [ 123.252559041766517, 53.567790833080664 ], [ 123.15359867443965, 53.513117167123767 ], [ 122.859663127351951, 53.47394643188278 ], [ 122.401603231404238, 53.450950419126684 ], [ 122.316750529014143, 53.49601226955059 ], [ 121.203485148820278, 53.276749165841238 ], [ 120.874254598271136, 53.280159811426188 ], [ 120.280182332348545, 52.865921530654077 ], [ 120.032962280285005, 52.760656636994042 ], [ 120.033789103484423, 52.625367737431247 ], [ 120.079367716946308, 52.589969381181845 ], [ 120.454021851327525, 52.639036154594862 ], [ 120.723979532829389, 52.542168681439762 ], [ 120.626156047064114, 52.346805928950516 ], [ 120.758085978784948, 52.237406921991862 ], [ 120.784079224176708, 52.158006083413852 ], [ 120.69731449386893, 52.048710429242703 ], [ 120.705789428739422, 51.97995493587166 ], [ 120.647601766208595, 51.911018575346986 ], [ 120.493140909725525, 51.875723571885771 ], [ 120.100451700885401, 51.659948629025791 ], [ 119.952863811515726, 51.397664897616892 ], [ 119.895296264811009, 51.383970642031386 ], [ 119.915656779237224, 51.330743916898371 ], [ 119.819641967703092, 51.274726665603225 ], [ 119.814991090466492, 51.215893046127235 ], [ 119.762177776483099, 51.215040385405302 ], [ 119.740835409226861, 51.071534932491204 ], [ 119.517954956156473, 50.904800924622919 ], [ 119.49666426754186, 50.737059225502776 ], [ 119.293575887217685, 50.599238179498457 ], [ 119.243656453982226, 50.445500793427072 ], [ 119.137564738022547, 50.392532451611316 ], [ 119.356621134357852, 50.340752666402238 ], [ 119.316210164767313, 50.09265411429601 ], [ 119.091676066197465, 49.986562398335764 ], [ 118.644364868244452, 49.954574687671879 ], [ 117.873765909968938, 49.513206279046699 ], [ 117.05758833823154, 49.672886454446427 ], [ 116.722311646465414, 49.801664123900025 ], [ 116.575447224810091, 49.92176015290886 ], [ 116.217639608281274, 50.013847554920574 ], [ 115.716274861995203, 49.877783509001631 ], [ 115.38781945870096, 49.891064352537626 ], [ 114.997352336141489, 50.144330547616619 ], [ 114.753749634338533, 50.236211243154344 ], [ 114.286284628433009, 50.276880595163277 ], [ 113.849825480361801, 50.080716857896675 ], [ 113.57966109238555, 50.019945373880034 ], [ 113.182682739717052, 49.801974182262995 ], [ 113.06082971242131, 49.595991922988674 ], [ 112.777126099389875, 49.501372375434812 ], [ 112.473268678406839, 49.534135234253768 ], [ 112.030194947439099, 49.411868794908912 ], [ 111.661018514393277, 49.396365865092889 ], [ 111.479117473492977, 49.343345846433863 ], [ 111.338454224482916, 49.364739889634166 ], [ 110.731359497442895, 49.137673646421717 ], [ 110.371174764104353, 49.241749979877852 ], [ 110.181418905058649, 49.161961569471202 ], [ 109.728526652083417, 49.266451314976109 ], [ 109.516239868275193, 49.255909323456365 ], [ 109.286693156364379, 49.338539938667395 ], [ 108.538056681171213, 49.327429505467421 ], [ 108.236369670524084, 49.532481587854932 ], [ 108.106196737089874, 49.55434071904881 ], [ 108.015711303733667, 49.602244772478059 ], [ 108.015814657420663, 49.655729879130831 ], [ 107.927447958456639, 49.670044251441027 ], [ 107.946516560790769, 49.933490702833524 ], [ 107.192195678687426, 50.00604441451793 ], [ 107.057113484699585, 50.074102274999802 ], [ 106.973656047189252, 50.196368713445509 ], [ 106.656517781770333, 50.327006734873066 ], [ 106.222280720879155, 50.292383524979982 ], [ 106.055934285738886, 50.333569641825363 ], [ 105.984879191721404, 50.399767151232709 ], [ 105.328640177801958, 50.476454977115509 ], [ 105.105759726530096, 50.390051982013233 ], [ 104.405802450222836, 50.300548401487333 ], [ 104.121685425142459, 50.148257955340455 ], [ 103.785271850915251, 50.186136780288223 ], [ 103.601407104354507, 50.133530171879897 ], [ 103.276775756895745, 50.197557271850599 ], [ 103.201689901467716, 50.296982727170814 ], [ 102.927391398394718, 50.30297719334294 ], [ 102.617797892758745, 50.399302063239702 ], [ 102.513101440778939, 50.503688456857049 ], [ 102.30293339046375, 50.563891500092836 ], [ 102.275906616297505, 50.650191142407323 ], [ 102.329391723849085, 50.718817445468687 ], [ 102.216788777779641, 50.798864237394412 ], [ 102.22965620926675, 50.97926666332603 ], [ 102.146508830118478, 51.097631531570073 ], [ 102.135295044131226, 51.240284322863431 ], [ 102.193379353874036, 51.307205303581952 ], [ 102.074678588846155, 51.37482391449231 ], [ 101.526391642860062, 51.47582550094603 ], [ 101.350175007970392, 51.450452372279074 ], [ 100.510898072488146, 51.726895447267168 ], [ 99.917911011284389, 51.749478047973753 ], [ 99.709654988887053, 51.880581156495509 ], [ 99.323890422205238, 51.934221294577185 ], [ 98.994711548499367, 52.058296407253351 ], [ 98.927635539048765, 52.129584046166542 ], [ 98.855598592201659, 52.10669138619869 ], [ 98.682689250108751, 51.819473776593725 ], [ 98.332219685989742, 51.718317160508548 ], [ 98.228246704422077, 51.583415833674167 ], [ 98.220391886276445, 51.475205383321565 ], [ 98.039731079725698, 51.457299500071827 ], [ 97.922838989827881, 51.318470765513609 ], [ 97.929040162473655, 51.215040385405302 ], [ 97.806360311079629, 51.00112579451968 ], [ 97.98464400351827, 50.846923320455119 ], [ 97.94402632745323, 50.774472962457367 ], [ 98.038490845376373, 50.62295766356533 ], [ 98.293462361898833, 50.51862294589256 ], [ 98.262456502265991, 50.283805237322156 ], [ 98.047999308121518, 50.023045960202865 ], [ 97.829924765515727, 49.92331044652002 ], [ 97.756337525056892, 49.961499328931041 ], [ 97.566581665111812, 49.916799215511617 ], [ 97.573609660057855, 49.847501118881667 ], [ 97.343339477734958, 49.734174703300027 ], [ 97.152963501064789, 49.750246073897188 ], [ 96.969202108191041, 49.886671855022428 ], [ 96.701931600063517, 49.91375030513251 ], [ 96.585142862952978, 49.857526347363205 ], [ 96.503287394098152, 49.922121887215326 ], [ 96.346294392972084, 49.888583882940111 ], [ 96.0559761961444, 49.998809713097614 ], [ 95.946318806767749, 49.938503316175002 ], [ 95.827876424157921, 50.020152079454988 ], [ 95.500661255213004, 49.886723531865641 ], [ 95.354727010443241, 49.947701721457236 ], [ 95.076397745959184, 49.945531311121329 ], [ 94.921575155169705, 50.045886943328185 ], [ 94.60345503781997, 50.019738668305081 ], [ 94.491730590894178, 50.152288717649981 ], [ 94.354477987469465, 50.223602193187048 ], [ 94.258669882409151, 50.557535299614528 ], [ 93.104941853983632, 50.59882476834872 ], [ 93.011407512047015, 50.62331939697242 ], [ 92.96169478348736, 50.777883606243222 ], [ 92.796123494703636, 50.788012187512436 ], [ 92.649775838783967, 50.674065653407126 ], [ 92.360904581881357, 50.868369040499033 ], [ 92.301683391475535, 50.8433576461386 ], [ 92.242772258533023, 50.720006002075422 ], [ 92.158849731230191, 50.689103495230086 ], [ 91.749779093430618, 50.684090881888778 ], [ 91.415742635114839, 50.461365458449279 ], [ 91.012046345862416, 50.425295309531123 ], [ 90.726585735443393, 50.291866761042002 ], [ 90.683901000930746, 50.216212463934141 ], [ 90.475231567382934, 50.214610494378746 ], [ 90.020530640177014, 50.070743307158125 ], [ 89.969422649436012, 49.967080383952748 ], [ 89.667683960146917, 49.927289531087297 ], [ 89.615335734156872, 49.841920065658542 ], [ 89.702410522827336, 49.719963685575465 ], [ 89.441599568865286, 49.643585917156486 ], [ 89.371939737928813, 49.581677552477345 ], [ 89.21644535446967, 49.634490866460624 ], [ 89.178204793416512, 49.598472392586757 ], [ 89.215618530370932, 49.545452373028695 ], [ 89.160738159738628, 49.502715963471189 ], [ 88.975323120465873, 49.45584543971529 ], [ 88.888920125363541, 49.541679993137222 ], [ 88.870626668486068, 49.436001689226657 ], [ 88.615758504751398, 49.492949117407704 ], [ 88.199969930367899, 49.454346822048194 ], [ 88.115530640027089, 49.356575012226756 ], [ 88.143952677274399, 49.270740459704371 ], [ 87.97548750954104, 49.175810851989297 ], [ 87.506058797076037, 49.120878805412588 ], [ 87.400432170008514, 49.07101104812142 ], [ 87.323796020969894, 49.085273743588232 ], [ 87.271757853342422, 49.205111389279296 ], [ 87.024537801278484, 49.248933004454614 ], [ 86.913020060827421, 49.338694967399078 ], [ 86.933070515991517, 49.390113017401745 ], [ 86.814008015757565, 49.450006002275416 ], [ 86.824343303501109, 49.509227194479593 ], [ 86.599344116038139, 49.573512675069594 ], [ 86.647093139836841, 49.653662822481408 ], [ 86.775870809290268, 49.695003968058472 ], [ 86.748378947131016, 49.782957254973724 ], [ 86.61019616681989, 49.795514628097862 ], [ 86.47547570803772, 49.670819396898025 ], [ 86.272128947093222, 49.583641256338751 ], [ 86.177251017120909, 49.463338522654681 ], [ 86.070487508492079, 49.526280416108705 ], [ 85.946257365285305, 49.48137359621461 ], [ 85.940572957475922, 49.559611715708002 ], [ 85.673302449348739, 49.56043853800827 ], [ 85.614856404399745, 49.6171275846703 ], [ 85.223614136383446, 49.595733541469656 ], [ 85.056285848413438, 49.873339336441347 ], [ 84.954586629069752, 49.906929017559833 ], [ 84.954793336443458, 49.990489807858523 ], [ 85.025435018411656, 50.004080708857657 ], [ 84.98672937026447, 50.066970927266652 ], [ 84.838676392002071, 50.080820211583841 ], [ 84.440767863346366, 50.244634501181451 ], [ 84.331368856387883, 50.213473613716076 ], [ 84.249978476425611, 50.259930725422464 ], [ 84.176752970273299, 50.439144592948423 ], [ 84.195614867932022, 50.511439921315457 ], [ 84.101718790789505, 50.628590394530875 ], [ 83.975835002083613, 50.686364645012191 ], [ 83.950565226204333, 50.780415752684576 ], [ 83.820495646457175, 50.868007304393586 ], [ 83.433955933419725, 50.992650859649359 ], [ 83.107567586774678, 50.992650859649359 ], [ 82.975896037472296, 50.881908265554102 ], [ 82.726453898228669, 50.900718485469611 ], [ 82.672762085102136, 50.78976918669855 ], [ 82.475823201480011, 50.714011535903978 ], [ 82.32839033994253, 50.752097066426586 ], [ 82.14731612134193, 50.701609192410103 ], [ 81.744136596926694, 50.784911601189606 ], [ 81.674115030784208, 50.736025695829369 ], [ 81.460226277420929, 50.730341288919419 ], [ 81.418781779056019, 50.762484029214761 ], [ 81.466117390805039, 50.833745830605778 ], [ 81.400798381440325, 50.959112854475109 ], [ 81.051517374827199, 50.955702210688514 ], [ 81.152028035765397, 51.186540832893229 ], [ 81.022113484749582, 51.177394104454436 ], [ 80.924238322140695, 51.216073914179503 ], [ 80.905738159688212, 51.283563335679275 ], [ 80.8425378829171, 51.257518413444359 ], [ 80.682754353830319, 51.302011820389112 ], [ 80.599245239476375, 51.208554993717996 ], [ 80.421995076711539, 51.187574362566806 ], [ 80.410522908305552, 51.104840394568328 ], [ 80.464473103850821, 51.043707174446467 ], [ 80.439048299239857, 50.958131003443157 ], [ 80.181286254757026, 50.875655416064717 ], [ 80.142735636240729, 50.817106018328218 ], [ 80.015404908509652, 50.839481913459281 ], [ 80.085994914533615, 50.7521487432698 ], [ 80.021296020994953, 50.766876525831321 ], [ 79.042957804259174, 51.992512308995742 ], [ 77.866802205657393, 53.272330832602222 ], [ 77.612760864222764, 53.442785544417575 ], [ 76.495206339301319, 53.992312723853331 ], [ 76.376660603904043, 54.154266663276189 ], [ 76.664601684819957, 54.134061178480465 ], [ 76.837717732487647, 54.296893616147599 ], [ 76.834203735913945, 54.345676168720559 ], [ 76.752968383783809, 54.376682027453512 ], [ 76.903553508487732, 54.432595926860358 ], [ 76.895905395917623, 54.463860168911765 ], [ 76.672766561327876, 54.436471660438883 ], [ 76.623053832768221, 54.355908101877105 ], [ 76.476499471273939, 54.323145243958038 ], [ 76.234240357506621, 54.347433167006784 ], [ 76.177086222850846, 54.306763814997851 ], [ 76.183804159434544, 54.251573385103939 ], [ 75.640374796259835, 54.098869528705734 ], [ 75.429224894013828, 54.090084534573805 ], [ 75.360701946437814, 54.05954376293414 ], [ 75.433979125836231, 53.986524964155876 ], [ 75.027905722471189, 53.807931213354777 ], [ 74.772004028163565, 53.830875549267262 ], [ 74.616457966961661, 53.680703838411546 ], [ 74.438484334684574, 53.673417460147959 ], [ 74.456881144349552, 53.569754536942582 ], [ 74.388358194974614, 53.462215881957377 ], [ 74.269605754002555, 53.515235902415327 ], [ 74.223303670128701, 53.594610902571276 ], [ 74.076852661421356, 53.566188864424248 ], [ 74.058042439706867, 53.624583232530028 ], [ 73.904150024903799, 53.639155985460263 ], [ 73.652899211429542, 53.609183656400546 ], [ 73.410950155125477, 53.430021465717971 ], [ 73.347181438472717, 53.459373678052827 ], [ 73.391209757424633, 53.520248514857258 ], [ 73.230599406037982, 53.572338359327944 ], [ 73.229669230051456, 53.662410381534244 ], [ 73.306563762407848, 53.68566477490964 ], [ 73.347388143148351, 53.787622376671322 ], [ 73.437821899661117, 53.808499654135801 ], [ 73.391209757424633, 53.828240051836985 ], [ 73.431827433489502, 53.865447083216623 ], [ 73.682871541388636, 53.874128724561103 ], [ 73.740645792769101, 54.057941793378689 ], [ 73.60153283737111, 54.071222636016273 ], [ 73.518023722117277, 53.956035868460958 ], [ 73.392760051036021, 53.974019266976029 ], [ 73.360307251478673, 53.938414205151787 ], [ 73.062754354130334, 53.97908355716072 ], [ 72.942038208396809, 54.121762186875401 ], [ 72.624228149409532, 54.134991354467218 ], [ 72.50309859342542, 54.050862122488809 ], [ 72.656164185029127, 54.042542216350228 ], [ 72.70019250488042, 53.957637838015842 ], [ 72.556842082496246, 53.977223206086137 ], [ 72.392200968799841, 53.908235169617399 ], [ 72.418659302185233, 54.016032207020771 ], [ 72.358404582106061, 54.092978414422589 ], [ 72.482944783675123, 54.135611471192647 ], [ 72.298563273176796, 54.178399557593934 ], [ 72.324401489837044, 54.253485413021622 ], [ 72.1847717705013, 54.35683827786454 ], [ 72.043178345504543, 54.378025615489889 ], [ 72.103019654433808, 54.311569723664093 ], [ 72.066742798141888, 54.222376201500481 ], [ 72.169992309297982, 54.196848043202806 ], [ 72.177640421868261, 54.135973205498942 ], [ 72.099505656061524, 54.131890768144558 ], [ 71.983647094937908, 54.231574605883679 ], [ 71.762471965109228, 54.247645976480896 ], [ 71.708728475139424, 54.132200827406564 ], [ 71.647233520710529, 54.10858469702606 ], [ 71.477114705679469, 54.109669902644214 ], [ 71.45313684099267, 54.181345113386271 ], [ 71.320586793445614, 54.201033834244015 ], [ 71.161268351453543, 54.101970113230152 ], [ 71.043962850405251, 54.185944316476821 ], [ 71.052076050069843, 54.263200582241097 ], [ 70.970840697940275, 54.305006816711455 ], [ 71.190620564687549, 54.318184307460001 ], [ 71.141217895389502, 54.563750712225158 ], [ 71.264672892240526, 54.661729228521324 ], [ 71.200697469113095, 54.723999329305855 ], [ 71.005980672670319, 54.774228820903716 ], [ 70.945932658165759, 54.887916973489837 ], [ 70.977145223373725, 55.077982889998623 ], [ 70.793177124025135, 55.233167215994115 ], [ 70.820358927822099, 55.294145406485427 ], [ 70.441157267194285, 55.283345033446722 ], [ 70.382452840726103, 55.206243796413958 ], [ 70.213677612831759, 55.131984761487786 ], [ 69.940309285744888, 55.200249329342796 ], [ 69.673865600816953, 55.334039612138383 ], [ 69.334558146741415, 55.38514760467848 ], [ 69.186143432373626, 55.325771382842845 ], [ 69.12258142129582, 55.397860006534131 ], [ 68.927296183172359, 55.433723449877505 ], [ 68.970601034410436, 55.278642477568496 ], [ 68.700591675165924, 55.360497946423493 ], [ 68.605300334043363, 55.195598450308523 ], [ 68.1771094161669, 55.170535380004083 ], [ 68.308160847845045, 55.072815247025858 ], [ 68.16605065891099, 54.956129863602371 ], [ 67.882243693092107, 54.970444235013417 ], [ 67.698482300218188, 54.867918192470711 ], [ 67.311322470455877, 54.859908346493114 ], [ 67.213343953260903, 54.797173157715008 ], [ 65.977450399416512, 54.611706442498587 ], [ 65.932801961041946, 54.70255360926194 ], [ 65.743976277982938, 54.600854391716666 ], [ 65.449782348476674, 54.627467753833571 ], [ 65.44900720212064, 54.556619364492235 ], [ 65.198169799796347, 54.516156718058085 ], [ 65.184217164490519, 54.310432841202669 ], [ 65.085411824995504, 54.308572490128256 ], [ 64.910642130929546, 54.402726950588146 ], [ 64.720162801472441, 54.333842265108672 ], [ 64.578517701430997, 54.385570373474309 ], [ 64.004495890673013, 54.319734599272408 ], [ 64.007854859414408, 54.22868072513586 ], [ 63.897473998726241, 54.194160868929146 ], [ 63.70864831566746, 54.250436504441211 ], [ 63.36830733281738, 54.162844950934016 ], [ 63.156744019421296, 54.180053203092882 ], [ 63.08465539573001, 54.085640361113974 ], [ 62.580965210376235, 54.05360097360591 ], [ 62.525258016544342, 53.871854961437691 ], [ 62.389969116081943, 53.941566467418681 ], [ 62.444022664414774, 53.992312723853331 ], [ 62.412706746419474, 54.026625875383786 ], [ 62.002602579845473, 54.017375794157999 ], [ 62.003636109518879, 53.932006327829868 ], [ 61.856409952657373, 53.942703348980331 ], [ 61.791297647968406, 54.000787659622858 ], [ 61.619938599486886, 53.992571106271555 ], [ 61.581801392120553, 53.947664286377574 ], [ 61.33768192548041, 54.063161113194894 ], [ 61.19350467989716, 54.018254293300743 ], [ 61.210764608000432, 53.907666727937169 ], [ 61.14523889126184, 53.95014475507628 ], [ 60.996100708281006, 53.941411439586147 ], [ 60.978013956978657, 53.882603659431425 ], [ 61.084984172082159, 53.875317281167838 ], [ 61.199085734019661, 53.797130839416866 ], [ 61.007572875787616, 53.635745342573387 ], [ 60.88024214715756, 53.632799784982296 ], [ 61.280734497299306, 53.542417704413708 ], [ 61.503046508689692, 53.588978170706355 ], [ 61.555343058735332, 53.505727437870917 ], [ 61.41230269381424, 53.435757549471191 ], [ 61.235259237524076, 53.503040264496747 ], [ 61.137177368440973, 53.373125713480988 ], [ 61.162705525839613, 53.299150899394874 ], [ 61.514311972419705, 53.208665466938044 ], [ 61.643089640074948, 53.243340353674512 ], [ 61.764219197857926, 53.16946889237596 ], [ 62.050661662006121, 53.124768778955968 ], [ 62.116032349113652, 53.064591573242751 ], [ 62.094173217919831, 52.992477112029292 ], [ 61.959246054462085, 52.934935405544707 ], [ 61.819823038902371, 52.9782402549842 ], [ 61.605572550333193, 52.948319600969 ], [ 61.448269490844496, 53.02141591411322 ], [ 60.974603312293198, 52.971238098459196 ], [ 61.058422485009942, 52.922171325946067 ], [ 60.696170695021635, 52.73492177402062 ], [ 60.672606242384461, 52.67216074772017 ], [ 60.803140910124796, 52.627744853342108 ], [ 60.814923136893299, 52.521911520699803 ], [ 60.936466104927035, 52.488580221100506 ], [ 61.039922323456665, 52.33499786465967 ], [ 60.672192830335007, 52.144337667149443 ], [ 60.425799601470658, 52.129584046166542 ], [ 60.202764119668529, 51.992744852992587 ], [ 60.003189737716298, 51.992589823361868 ], [ 59.985723104038414, 51.952282207458154 ], [ 60.060757284421356, 51.858670349357226 ], [ 60.138065226129527, 51.8888752242122 ], [ 60.452051229281039, 51.805469463544966 ], [ 60.475512329130936, 51.776194764677086 ], [ 60.356036417746566, 51.692272237373743 ], [ 60.375880167335879, 51.662532451411323 ], [ 60.515096476421434, 51.617909851458307 ], [ 60.937396280913788, 51.611166077352777 ], [ 60.944630981434727, 51.544374287843084 ], [ 61.029380330138395, 51.482672627839577 ], [ 61.473797648243135, 51.425802714024087 ], [ 61.562991170406065, 51.295526429600784 ], [ 61.663656860076003, 51.258396912587273 ], [ 61.534155721109641, 51.206074524119913 ], [ 61.426875448543228, 50.83307403613793 ], [ 61.372098429798825, 50.782482808434963 ], [ 60.718494914209373, 50.6526716111062 ], [ 60.300432576702121, 50.684659323569008 ], [ 60.176719197433272, 50.742175192531306 ], [ 60.136204875054887, 50.844494528599512 ], [ 60.021276489018817, 50.854054667289063 ], [ 59.962158651400841, 50.829508361821581 ], [ 59.915133097114904, 50.673807271888109 ], [ 59.815707641795029, 50.562909648161508 ], [ 59.522805623480849, 50.474646301985331 ], [ 59.451698853519247, 50.53727813797542 ], [ 59.563423300445038, 50.579859517902207 ], [ 59.437642862728239, 50.631122538274781 ], [ 59.27331180829367, 50.615981344563522 ], [ 59.197450806509664, 50.662748516431122 ], [ 58.925942830497434, 50.678148092560605 ], [ 58.747762491745846, 50.795091858402827 ], [ 58.664356730179065, 50.789924215430119 ], [ 58.640998983116674, 50.863408101303037 ], [ 58.550151815453944, 50.89327707937349 ], [ 58.595006959403634, 51.023372498441915 ], [ 58.377965942874141, 51.070656433347722 ], [ 58.308409464725401, 51.150031434403388 ], [ 58.167642862927835, 51.055179341952964 ], [ 57.768804158285548, 51.119671529917355 ], [ 57.722398723422373, 50.908728333245961 ], [ 57.555897257752576, 50.918753560828463 ], [ 57.467633912475208, 50.85849884164827 ], [ 57.334308715874613, 50.897411194471033 ], [ 57.154474732523113, 51.09995697153704 ], [ 56.716051879690781, 51.072465108477957 ], [ 56.688353311955893, 50.969138082056872 ], [ 56.478340291271763, 51.073033549259151 ], [ 56.315456176761529, 50.883820293471786 ], [ 56.158359822847785, 50.905524394135682 ], [ 56.07888146990399, 50.724760233897712 ], [ 55.659992310097266, 50.530043437454935 ], [ 55.467755981453479, 50.656960754934744 ], [ 55.305388630880884, 50.664970602711264 ], [ 55.084006795477421, 50.796900534432211 ], [ 55.047729940084878, 50.884233704621693 ], [ 54.638245890235623, 51.027687480692578 ], [ 54.533756144730376, 51.003244527113168 ], [ 54.545951783548105, 50.953273417933701 ], [ 54.502956990672828, 50.928262024472986 ], [ 54.638245890235964, 50.885732320490433 ], [ 54.676279744814508, 50.60254547139624 ], [ 54.49944299319958, 50.523273824027626 ], [ 54.37976037624037, 50.619443665192648 ], [ 54.478565714836236, 50.853486227407757 ], [ 54.275787394672705, 50.904284160685677 ], [ 54.14535607881993, 50.992650859649359 ], [ 54.111559692126264, 51.096003724492334 ], [ 53.935859822972589, 51.185610656906704 ], [ 53.673860311504257, 51.219872132492924 ], [ 53.594071899298854, 51.289428610641835 ], [ 53.610298300426336, 51.388414815491387 ], [ 53.407313272889439, 51.484171245506673 ], [ 53.165777629534261, 51.514556987515107 ], [ 52.944292440443917, 51.452881165033887 ], [ 52.77975468043428, 51.50812327087209 ], [ 52.545815470107982, 51.459521586351968 ], [ 52.307793823326335, 51.774541117378533 ], [ 52.091786336470363, 51.658708395575786 ], [ 51.86916426581837, 51.673074442931068 ], [ 51.764726196256959, 51.593311870046591 ], [ 51.782296184521613, 51.492852885052798 ], [ 51.693309367033976, 51.454095560961719 ], [ 51.584323771225058, 51.534917501041605 ], [ 51.46185062630542, 51.475282899486217 ], [ 51.304237508454435, 51.471639709904935 ], [ 51.236541382279086, 51.535899352972592 ], [ 51.358962850355169, 51.561479187214502 ], [ 51.371933635528933, 51.629588725439476 ], [ 51.233854207106049, 51.685476786424431 ], [ 50.925449259875563, 51.67968902582777 ], [ 50.767009317925613, 51.759399923667274 ], [ 50.79067712425001, 51.597290955513358 ], [ 50.670891154503352, 51.567525330229898 ], [ 50.694197224722302, 51.611166077352777 ], [ 50.581697632340251, 51.635298971670522 ], [ 50.525370320883724, 51.565587463890154 ], [ 50.527230671958193, 51.470089417192753 ], [ 50.359592326524876, 51.413322856165337 ], [ 50.325382527781585, 51.303458761212767 ], [ 49.986850220061683, 51.229819845709244 ], [ 49.779059285657524, 51.102179056917635 ], [ 49.436547892471594, 51.112333476608683 ], [ 49.347354370308153, 50.964280497447135 ], [ 49.423732136928948, 50.88206329338658 ], [ 49.369420207076928, 50.826769512502665 ], [ 49.144059285307833, 50.781707662078816 ], [ 48.83043501826188, 50.596034241287555 ], [ 48.568280477162489, 50.636548564564748 ], [ 48.673390340292201, 50.579549460439637 ], [ 48.782841024094068, 50.111464335111123 ], [ 48.874101602906933, 50.069813131171202 ], [ 48.885677124100255, 50.019893697036764 ], [ 48.784598022381033, 49.933387350046189 ], [ 48.429890991276352, 49.809673971676375 ], [ 48.23930830903123, 49.864761047883803 ], [ 47.993225139428716, 50.181795960515444 ], [ 47.624668823107982, 50.440798238448053 ], [ 47.511497436257685, 50.436922506668282 ], [ 47.294766479889347, 50.275433655239169 ], [ 47.322310017993345, 50.237399801560002 ], [ 47.265104207393335, 50.186343485863006 ], [ 47.327632691495637, 50.1092939265734 ], [ 47.308719116094494, 50.044801738609749 ], [ 46.899906860713145, 49.820319315983568 ], [ 46.775108276725689, 49.332545472495951 ], [ 46.979230184025994, 49.24428212542 ], [ 47.040001668042635, 49.150334371434099 ], [ 46.930034220303128, 49.004038391458664 ], [ 46.753817586312834, 48.914069722939757 ], [ 46.478278848889772, 48.410560405638194 ], [ 47.098912800985147, 48.265375467903709 ], [ 47.103563680020159, 48.101199443099915 ], [ 47.19203373177146, 48.071795553022639 ], [ 47.044239135927285, 47.986219381119611 ], [ 47.158650757126964, 47.871549378401482 ], [ 47.123820841658585, 47.808039042368023 ], [ 47.359672078103983, 47.683343811168186 ], [ 47.412175333724576, 47.835866801311738 ], [ 47.649731893412422, 47.765586854549781 ], [ 48.044488158901629, 47.769695129426509 ], [ 48.17435103397321, 47.71285105403291 ], [ 48.41108077046124, 47.445761413957825 ], [ 48.525078980510443, 47.410233866499539 ], [ 48.697264852191211, 47.100976258547348 ], [ 49.006289917046331, 46.769110210568158 ], [ 48.91688968930788, 46.702576803476859 ], [ 48.764030802379807, 46.682836406675221 ], [ 48.67659427940265, 46.758025614890357 ], [ 48.556704955969167, 46.761746317938218 ], [ 48.455109090312533, 46.660796407428734 ], [ 48.530039917008651, 46.638187968300088 ], [ 48.539393351022454, 46.567959697482365 ], [ 48.705016317549337, 46.550441386061323 ], [ 49.22714277392015, 46.327866929115544 ] ], [ [ 19.609548373000223, 54.456732488999876 ], [ 19.609629753910212, 54.456732489512717 ] ], [ [ 19.609548373000223, 54.456732488999876 ], [ 19.620894216694978, 54.451343131280851 ], [ 19.7410926515048, 54.504869922408886 ], [ 19.955389736647135, 54.635567594068903 ], [ 19.954801008060372, 54.701210794642805 ], [ 20.020149844340096, 54.721816283494547 ], [ 20.072841023194655, 54.657350540095081 ], [ 20.176751560336527, 54.695617876663732 ], [ 20.406649943140451, 54.680016578102823 ], [ 20.068131197197204, 54.557266736970348 ], [ 19.991007795473422, 54.572573671238331 ], [ 19.757928895502346, 54.434265830303957 ], [ 22.698386678002862, 54.342937318502436 ], [ 22.767219685740031, 54.356269837083516 ], [ 22.680403279488019, 54.453214824604743 ], [ 22.700867146701739, 54.679557597405619 ], [ 22.848351684182944, 54.813812968194213 ], [ 22.821273234072635, 54.885488179835988 ], [ 22.633481078888849, 54.957938537833741 ], [ 22.541083619413541, 55.075760804617687 ], [ 22.076822550820111, 55.02858022160018 ], [ 22.003442016835777, 55.093485820713795 ], [ 21.503937622523551, 55.194409891902922 ], [ 21.374849893807607, 55.289959615443649 ], [ 21.183441602448283, 55.201727606144232 ], [ 21.230153841926551, 54.938910223328151 ], [ 20.969086134217889, 54.899807033467653 ], [ 20.558116082391336, 54.940822658639092 ], [ 20.533376498226971, 54.973578192479579 ], [ 20.98943069646964, 55.273116312667526 ], [ 19.022535810305328, 55.93159404618973 ] ], [ [ 18.925751321594305, 55.879798221361114 ], [ 19.063337290510106, 55.346667529000968 ], [ 19.345004047845691, 54.815000759986049 ], [ 19.315000317356294, 54.66999759235614 ], [ 19.609548373000223, 54.456732488999876 ] ], [ [ 28.148906697386394, 56.142414043473707 ], [ 28.217274617129874, 56.27072662403441 ], [ 28.164254598471189, 56.437951559217481 ], [ 28.093251180397942, 56.501591086459598 ], [ 28.126117391104856, 56.547763977325872 ], [ 28.010982299493662, 56.587554830191323 ], [ 27.981009969534739, 56.6870061239336 ], [ 27.865461466773183, 56.742687480242807 ], [ 27.913520548035024, 56.820150452481585 ], [ 27.786396524979693, 56.871258443222928 ], [ 27.628369995079424, 56.844154155589933 ], [ 27.750739786312238, 57.042359111084068 ], [ 27.682216837836904, 57.103699035881732 ], [ 27.824327026770902, 57.159070332929446 ], [ 27.840295043681408, 57.29063852944472 ], [ 27.511322876449867, 57.430397440889578 ], [ 27.528169393402891, 57.528479309072793 ], [ 27.352934611343358, 57.52760080992914 ], [ 27.328026570669806, 57.58315297502952 ], [ 27.38208011900241, 57.602686666256716 ], [ 27.391433553016043, 57.680201314438989 ], [ 27.507757202133348, 57.71477284748903 ], [ 27.502434530429468, 57.772547098869495 ], [ 27.553852580432419, 57.794767965269557 ], [ 27.524603719086713, 57.807299499972316 ], [ 27.799315633310016, 57.861068827464464 ], [ 27.664956908834256, 57.918403829273132 ], [ 27.673911514205201, 58.040477453072072 ], [ 27.890269147603306, 57.95570058421464 ], [ 27.841993430452533, 57.921259981662899 ], [ 27.960622173274942, 57.855028052502576 ], [ 28.162261600992338, 57.895944666813193 ], [ 28.151075764135385, 58.014573409635034 ], [ 27.945609603300568, 58.175884951629143 ], [ 27.609740134200194, 58.134968338218471 ], [ 27.592372650777406, 58.226809945622449 ], [ 27.506712689938922, 58.237112689598803 ], [ 27.543213841645638, 58.322478287043339 ], [ 27.651245476197857, 58.308643172444533 ], [ 27.629756894465174, 58.356918889595079 ], [ 27.833162507044221, 58.472015263593391 ], [ 27.829924501614528, 58.572982158699688 ], [ 27.761926387592951, 58.667473043846087 ], [ 27.794012077595426, 58.862636459804833 ], [ 27.727191420747715, 58.915033274366067 ], [ 27.715230558043913, 58.995784409023145 ], [ 27.897922614737297, 59.231180347495354 ], [ 27.94649269528162, 59.278572971765129 ], [ 28.007131705563893, 59.237950721748234 ], [ 28.102800046984783, 59.274157510061343 ], [ 28.08572692785549, 59.149052755480625 ], [ 28.225255523823421, 59.303299558028471 ], [ 28.301201468373165, 59.258261847206199 ], [ 28.304733838096297, 59.296529183774908 ], [ 28.493126879801935, 59.306537563457596 ], [ 28.274708697248911, 59.314191031491134 ], [ 28.180045509192951, 59.356650945384956 ], [ 28.019053581757703, 59.481756903258599 ], [ 28.072601758764336, 59.578029690717813 ], [ 26.914999149286928, 59.631665910210472 ], [ 26.335783420392374, 59.99463262567815 ] ], [ [ 28.410234415286254, 68.898534648255577 ], [ 29.120268595119512, 69.04684600893637 ], [ 29.240467976915852, 69.115058899048961 ], [ 29.376790405253189, 69.301610819883535 ], [ 29.967141968127521, 69.37349273710015 ], [ 30.224697306136022, 69.540821025069988 ], [ 30.220149779888573, 69.600248921949969 ], [ 30.119070679068727, 69.634562073480936 ], [ 30.511656535121176, 69.53632517656564 ], [ 30.89824792500184, 69.544231670654767 ], [ 30.927703491023351, 69.67213083916721 ], [ 30.840953890909304, 69.805841902481859 ], [ 31.106403517696094, 69.980617369304866 ], [ 31.507582140431055, 70.122215587600408 ] ] ] } }
]
}
