{
"type": "FeatureCollection",
"name": "country_label_points",
"crs": { "type": "name", "properties": { "name": "urn:ogc:def:crs:OGC:1.3:CRS84" } },
"features": [
{ "type": "Feature", "properties": { "id": "gorgas-label", "display_name": "Gorgas", "country_id": "gorgas" }, "geometry": { "type": "Point", "coordinates": [ 43.636962674747615, 42.286955366197176 ] } },
{ "type": "Feature", "properties": { "id": "ariana-label", "display_name": "Ariana", "country_id": "ariana" }, "geometry": { "type": "Point", "coordinates": [ 54.075579629919865, 32.421665548176499 ] } },
{ "type": "Feature", "properties": { "id": "donovia-label", "display_name": "Donovia", "country_id": "donovia" }, "geometry": { "type": "Point", "coordinates": [ 88.387471288998469, 59.464612819076343 ] } },
{ "type": "Feature", "properties": { "id": "pirtuni-label", "display_name": "Pirtuni", "country_id": "pirtuni" }, "geometry": { "type": "Point", "coordinates": [ 30.056382777260872, 50.270782776204186 ] } },
{ "type": "Feature", "properties": { "id": "limaria-label", "display_name": "Limaria", "country_id": "limaria" }, "geometry": { "type": "Point", "coordinates": [ 44.836591905267966, 40.078872579256121 ] } },
{ "type": "Feature", "properties": { "id": "atropia-label", "display_name": "Atropia", "country_id": "atropia" }, "geometry": { "type": "Point", "coordinates": [ 47.69753983231162, 40.088610334499364 ] } }
]
}
