{
"type": "FeatureCollection",
"name": "donovia_gorgas_border",
"crs": { "type": "name", "properties": { "name": "urn:ogc:def:crs:OGC:1.3:CRS84" } },
"features": [
{ "type": "Feature", "properties": { "Boundary": "Gorgas / Donovia", "Version": "GIS version 1.5; May 2024", "Status": "NOTIONAL", "id": "gorgas-donovia", "display_name": "Gorgas / Donovia" }, "geometry": { "type": "MultiLineString", "coordinates": [ [ [ 40.002770119292492, 43.377833935081462 ], [ 39.952212935102068, 43.142178734362801 ], [ 38.973372668914109, 42.343123072933864 ] ], [ [ 39.985976355324588, 43.388989609782911 ], [ 40.072830038475722, 43.551063742697387 ], [ 40.233130331499801, 43.57576507599746 ], [ 40.519624470692861, 43.505175069074134 ], [ 40.651916138519127, 43.538971456667291 ], [ 41.011790813495374, 43.375415548588798 ], [ 41.380657185480864, 43.334772034102052 ], [ 41.577544393159272, 43.215296123617364 ], [ 42.043355754464613, 43.180569560037434 ], [ 42.35455122875635, 43.236018372350308 ], [ 42.615207153087688, 43.136980490656939 ], [ 42.829767700019531, 43.168761494847168 ], [ 43.000093221524935, 43.09866241523833 ], [ 42.998852986276468, 43.04220591347233 ], [ 43.155587605883412, 42.942392884523734 ], [ 43.800612833815471, 42.746461690354842 ], [ 43.722581420795962, 42.62486704547775 ], [ 43.939725789213789, 42.552209981905094 ], [ 44.197384480909058, 42.629104512463044 ], [ 44.272005249243009, 42.702381694559278 ], [ 44.508114868106745, 42.75028574619035 ], [ 44.679422242442676, 42.723672384073403 ], [ 44.773473348316607, 42.609648337400976 ], [ 44.859359579480973, 42.759509989893949 ], [ 45.029788451975392, 42.688764954239034 ], [ 45.155362182318825, 42.693260804542263 ], [ 45.322690470289018, 42.530118307613591 ], [ 45.698688191806731, 42.507587381952078 ], [ 45.73641198712366, 42.447539368347392 ], [ 45.631405476781431, 42.201171977005238 ], [ 45.881364379962122, 42.102030742524725 ], [ 45.934126017101974, 42.028495178909125 ], [ 46.224340861142004, 41.993484395388791 ], [ 46.525511108750763, 41.882302552620914 ], [ 46.56757572474001, 41.786675314714117 ], [ 46.740795125194921, 41.85124501614488 ], [ 46.769113811453423, 41.775719910245705 ], [ 46.90223229978097, 41.712752177471209 ], [ 47.027030883768361, 41.556947733850883 ], [ 47.141390828124379, 41.55240020850291 ], [ 47.239059285158049, 41.415716044060467 ], [ 47.25084151192646, 41.316032206321303 ] ] ] } }
]
}
